COSMOS 2058             
1 20465U 90010A   26092.87891798  .00008167  00000+0  47959-3 0  9991
2 20465  82.4722  23.5939 0007818 245.0098 115.0321 15.11563160945894
SL-14 R/B               
1 20466U 90010B   26092.90007318  .00000805  00000+0  94605-4 0  9995
2 20466  82.5004 244.6412 0018916 216.7350 143.2570 14.83594041932073
SL-14 R/B               
1 20511U 90018B   26092.53605057  .00000551  00000+0  66144-4 0  9992
2 20511  82.5241 200.8062 0016578  18.5495 341.6320 14.82169070926116
HST                     
1 20580U 90037B   26092.69080411  .00009880  00000+0  32385-3 0  9990
2 20580  28.4721 236.2244 0002065  42.6057 317.4699 15.29872856776991
SL-16 R/B               
1 20625U 90046B   26092.87377815  .00000086  00000+0  68918-4 0  9998
2 20625  70.9985 247.1180 0016511 268.1996  91.7236 14.15018920851815
COSMOS 2084             
1 20663U 90055A   26092.82933544  .00005008  00000+0  35672-3 0  9991
2 20663  62.7895 253.2346 0013198 198.1971 161.8659 15.05798691939951
SL-6 R/B(2)             
1 20666U 90055D   26092.91162215  .00003144  00000+0  24068-3 0  9999
2 20666  62.7831 171.4732 0028775 352.4487   7.6175 15.03717154941831
SL-8 R/B                
1 20775U 90078B   26092.89457047  .00018989  00000+0  56307-3 0  9996
2 20775  82.9038 229.5266 0357643 292.3147  64.0523 14.89782666812908
SL-8 R/B                
1 21088U 91006B   26092.90731536  .00000145  00000+0  13063-3 0  9993
2 21088  82.9437 152.0403 0021528 330.5896 201.4575 13.77498374767402
OKEAN-3                 
1 21397U 91039A   26092.88220793  .00004777  00000+0  33473-3 0  9999
2 21397  82.5151 313.4014 0012667 247.5191 112.4695 15.04952572868676
COSMOS 2151             
1 21422U 91042A   26092.96266488  .00003582  00000+0  28406-3 0  9995
2 21422  82.4954  60.2545 0011834 346.4400  13.6504 15.00216741866832
SL-14 R/B               
1 21423U 91042B   26092.52665083  .00000581  00000+0  70442-4 0  9996
2 21423  82.4959 197.8354 0017610 158.3228 201.8736 14.81854302856600
