CCSDS_OMM_VERS = 2.0
CREATION_DATE  = 
ORIGINATOR     = 

OBJECT_NAME    = COSMOS 2058
OBJECT_ID      = 1990-010A
CENTER_NAME    = EARTH
REF_FRAME      = TEME
TIME_SYSTEM    = UTC
MEAN_ELEMENT_THEORY = SGP/SGP4

EPOCH          = 2026-04-02T21:05:38.513472
MEAN_MOTION    = 15.11563160
ECCENTRICITY   = .00078189
INCLINATION    = 82.4722
RA_OF_ASC_NODE = 23.5939
ARG_OF_PERICENTER = 245.0098
MEAN_ANOMALY   = 115.0321

EPHEMERIS_TYPE = 0
CLASSIFICATION_TYPE = U
NORAD_CAT_ID   = 20465
ELEMENT_SET_NO = 999
REV_AT_EPOCH   = 94589
BSTAR          = .47958886E-3
MEAN_MOTION_DOT = .8167E-4
MEAN_MOTION_DDOT = 0

CCSDS_OMM_VERS = 2.0
CREATION_DATE  = 
ORIGINATOR     = 

OBJECT_NAME    = SL-14 R/B
OBJECT_ID      = 1990-010B
CENTER_NAME    = EARTH
REF_FRAME      = TEME
TIME_SYSTEM    = UTC
MEAN_ELEMENT_THEORY = SGP/SGP4

EPOCH          = 2026-04-02T21:36:06.322752
MEAN_MOTION    = 14.83594041
ECCENTRICITY   = .00189163
INCLINATION    = 82.5004
RA_OF_ASC_NODE = 244.6412
ARG_OF_PERICENTER = 216.7350
MEAN_ANOMALY   = 143.2570

EPHEMERIS_TYPE = 0
CLASSIFICATION_TYPE = U
NORAD_CAT_ID   = 20466
ELEMENT_SET_NO = 999
REV_AT_EPOCH   = 93207
BSTAR          = .94604825E-4
MEAN_MOTION_DOT = .805E-5
MEAN_MOTION_DDOT = 0

CCSDS_OMM_VERS = 2.0
CREATION_DATE  = 
ORIGINATOR     = 

OBJECT_NAME    = SL-14 R/B
OBJECT_ID      = 1990-018B
CENTER_NAME    = EARTH
REF_FRAME      = TEME
TIME_SYSTEM    = UTC
MEAN_ELEMENT_THEORY = SGP/SGP4

EPOCH          = 2026-04-02T12:51:54.769248
MEAN_MOTION    = 14.82169070
ECCENTRICITY   = .00165782
INCLINATION    = 82.5241
RA_OF_ASC_NODE = 200.8062
ARG_OF_PERICENTER = 18.5495
MEAN_ANOMALY   = 341.6320

EPHEMERIS_TYPE = 0
CLASSIFICATION_TYPE = U
NORAD_CAT_ID   = 20511
ELEMENT_SET_NO = 999
REV_AT_EPOCH   = 92611
BSTAR          = .66144447E-4
MEAN_MOTION_DOT = .551E-5
MEAN_MOTION_DDOT = 0

CCSDS_OMM_VERS = 2.0
CREATION_DATE  = 
ORIGINATOR     = 

OBJECT_NAME    = HST
OBJECT_ID      = 1990-037B
CENTER_NAME    = EARTH
REF_FRAME      = TEME
TIME_SYSTEM    = UTC
MEAN_ELEMENT_THEORY = SGP/SGP4

EPOCH          = 2026-04-02T16:34:45.475104
MEAN_MOTION    = 15.29872856
ECCENTRICITY   = .00020651
INCLINATION    = 28.4721
RA_OF_ASC_NODE = 236.2244
ARG_OF_PERICENTER = 42.6057
MEAN_ANOMALY   = 317.4699

EPHEMERIS_TYPE = 0
CLASSIFICATION_TYPE = U
NORAD_CAT_ID   = 20580
ELEMENT_SET_NO = 999
REV_AT_EPOCH   = 77699
BSTAR          = .323846E-3
MEAN_MOTION_DOT = .988E-4
MEAN_MOTION_DDOT = 0

CCSDS_OMM_VERS = 2.0
CREATION_DATE  = 
ORIGINATOR     = 

OBJECT_NAME    = SL-16 R/B
OBJECT_ID      = 1990-046B
CENTER_NAME    = EARTH
REF_FRAME      = TEME
TIME_SYSTEM    = UTC
MEAN_ELEMENT_THEORY = SGP/SGP4

EPOCH          = 2026-04-02T20:58:14.432160
MEAN_MOTION    = 14.15018920
ECCENTRICITY   = .00165112
INCLINATION    = 70.9985
RA_OF_ASC_NODE = 247.1180
ARG_OF_PERICENTER = 268.1996
MEAN_ANOMALY   = 91.7236

EPHEMERIS_TYPE = 0
CLASSIFICATION_TYPE = U
NORAD_CAT_ID   = 20625
ELEMENT_SET_NO = 999
REV_AT_EPOCH   = 85181
BSTAR          = .68917946E-4
MEAN_MOTION_DOT = .86E-6
MEAN_MOTION_DDOT = 0

CCSDS_OMM_VERS = 2.0
CREATION_DATE  = 
ORIGINATOR     = 

OBJECT_NAME    = COSMOS 2084
OBJECT_ID      = 1990-055A
CENTER_NAME    = EARTH
REF_FRAME      = TEME
TIME_SYSTEM    = UTC
MEAN_ELEMENT_THEORY = SGP/SGP4

EPOCH          = 2026-04-02T19:54:14.582016
MEAN_MOTION    = 15.05798691
ECCENTRICITY   = .00131988
INCLINATION    = 62.7895
RA_OF_ASC_NODE = 253.2346
ARG_OF_PERICENTER = 198.1971
MEAN_ANOMALY   = 161.8659

EPHEMERIS_TYPE = 0
CLASSIFICATION_TYPE = U
NORAD_CAT_ID   = 20663
ELEMENT_SET_NO = 999
REV_AT_EPOCH   = 93995
BSTAR          = .35672393E-3
MEAN_MOTION_DOT = .5008E-4
MEAN_MOTION_DDOT = 0

CCSDS_OMM_VERS = 2.0
CREATION_DATE  = 
ORIGINATOR     = 

OBJECT_NAME    = SL-6 R/B(2)
OBJECT_ID      = 1990-055D
CENTER_NAME    = EARTH
REF_FRAME      = TEME
TIME_SYSTEM    = UTC
MEAN_ELEMENT_THEORY = SGP/SGP4

EPOCH          = 2026-04-02T21:52:44.153760
MEAN_MOTION    = 15.03717154
ECCENTRICITY   = .00287755
INCLINATION    = 62.7831
RA_OF_ASC_NODE = 171.4732
ARG_OF_PERICENTER = 352.4487
MEAN_ANOMALY   = 7.6175

EPHEMERIS_TYPE = 0
CLASSIFICATION_TYPE = U
NORAD_CAT_ID   = 20666
ELEMENT_SET_NO = 999
REV_AT_EPOCH   = 94183
BSTAR          = .24068291E-3
MEAN_MOTION_DOT = .3144E-4
MEAN_MOTION_DDOT = 0

CCSDS_OMM_VERS = 2.0
CREATION_DATE  = 
ORIGINATOR     = 

OBJECT_NAME    = SL-8 R/B
OBJECT_ID      = 1990-078B
CENTER_NAME    = EARTH
REF_FRAME      = TEME
TIME_SYSTEM    = UTC
MEAN_ELEMENT_THEORY = SGP/SGP4

EPOCH          = 2026-04-02T21:28:10.888608
MEAN_MOTION    = 14.89782666
ECCENTRICITY   = .03576431
INCLINATION    = 82.9038
RA_OF_ASC_NODE = 229.5266
ARG_OF_PERICENTER = 292.3147
MEAN_ANOMALY   = 64.0523

EPHEMERIS_TYPE = 0
CLASSIFICATION_TYPE = U
NORAD_CAT_ID   = 20775
ELEMENT_SET_NO = 999
REV_AT_EPOCH   = 81290
BSTAR          = .56307124E-3
MEAN_MOTION_DOT = .18989E-3
MEAN_MOTION_DDOT = 0

CCSDS_OMM_VERS = 2.0
CREATION_DATE  = 
ORIGINATOR     = 

OBJECT_NAME    = SL-8 R/B
OBJECT_ID      = 1991-006B
CENTER_NAME    = EARTH
REF_FRAME      = TEME
TIME_SYSTEM    = UTC
MEAN_ELEMENT_THEORY = SGP/SGP4

EPOCH          = 2026-04-02T21:46:32.047104
MEAN_MOTION    = 13.77498374
ECCENTRICITY   = .00215281
INCLINATION    = 82.9437
RA_OF_ASC_NODE = 152.0403
ARG_OF_PERICENTER = 330.5896
MEAN_ANOMALY   = 201.4575

EPHEMERIS_TYPE = 0
CLASSIFICATION_TYPE = U
NORAD_CAT_ID   = 21088
ELEMENT_SET_NO = 999
REV_AT_EPOCH   = 76740
BSTAR          = .13063432E-3
MEAN_MOTION_DOT = .145E-5
MEAN_MOTION_DDOT = 0

CCSDS_OMM_VERS = 2.0
CREATION_DATE  = 
ORIGINATOR     = 

OBJECT_NAME    = OKEAN-3
OBJECT_ID      = 1991-039A
CENTER_NAME    = EARTH
REF_FRAME      = TEME
TIME_SYSTEM    = UTC
MEAN_ELEMENT_THEORY = SGP/SGP4

EPOCH          = 2026-04-02T21:10:22.765152
MEAN_MOTION    = 15.04952572
ECCENTRICITY   = .00126672
INCLINATION    = 82.5151
RA_OF_ASC_NODE = 313.4014
ARG_OF_PERICENTER = 247.5191
MEAN_ANOMALY   = 112.4695

EPHEMERIS_TYPE = 0
CLASSIFICATION_TYPE = U
NORAD_CAT_ID   = 21397
ELEMENT_SET_NO = 999
REV_AT_EPOCH   = 86867
BSTAR          = .33472686E-3
MEAN_MOTION_DOT = .4777E-4
MEAN_MOTION_DDOT = 0

CCSDS_OMM_VERS = 2.0
CREATION_DATE  = 
ORIGINATOR     = 

OBJECT_NAME    = COSMOS 2151
OBJECT_ID      = 1991-042A
CENTER_NAME    = EARTH
REF_FRAME      = TEME
TIME_SYSTEM    = UTC
MEAN_ELEMENT_THEORY = SGP/SGP4

EPOCH          = 2026-04-02T23:06:14.245632
MEAN_MOTION    = 15.00216741
ECCENTRICITY   = .00118346
INCLINATION    = 82.4954
RA_OF_ASC_NODE = 60.2545
ARG_OF_PERICENTER = 346.4400
MEAN_ANOMALY   = 13.6504

EPHEMERIS_TYPE = 0
CLASSIFICATION_TYPE = U
NORAD_CAT_ID   = 21422
ELEMENT_SET_NO = 999
REV_AT_EPOCH   = 86683
BSTAR          = .28405621E-3
MEAN_MOTION_DOT = .3582E-4
MEAN_MOTION_DDOT = 0

CCSDS_OMM_VERS = 2.0
CREATION_DATE  = 
ORIGINATOR     = 

OBJECT_NAME    = SL-14 R/B
OBJECT_ID      = 1991-042B
CENTER_NAME    = EARTH
REF_FRAME      = TEME
TIME_SYSTEM    = UTC
MEAN_ELEMENT_THEORY = SGP/SGP4

EPOCH          = 2026-04-02T12:38:22.631712
MEAN_MOTION    = 14.81854302
ECCENTRICITY   = .00176101
INCLINATION    = 82.4959
RA_OF_ASC_NODE = 197.8354
ARG_OF_PERICENTER = 158.3228
MEAN_ANOMALY   = 201.8736

EPHEMERIS_TYPE = 0
CLASSIFICATION_TYPE = U
NORAD_CAT_ID   = 21423
ELEMENT_SET_NO = 999
REV_AT_EPOCH   = 85660
BSTAR          = .70441805E-4
MEAN_MOTION_DOT = .581E-5
MEAN_MOTION_DDOT = 0

